[{"OBJECT_NAME":"ICEYE-X40","OBJECT_ID":"2024-149CK","EPOCH":"2026-03-09T18:13:16.348800","MEAN_MOTION":14.97556326,"ECCENTRICITY":0.00059832,"INCLINATION":97.6865,"RA_OF_ASC_NODE":146.8579,"ARG_OF_PERICENTER":65.2061,"MEAN_ANOMALY":294.9783,"EPHEMERIS_TYPE":0,"CLASSIFICATION_TYPE":"U","NORAD_CAT_ID":60549,"ELEMENT_SET_NO":999,"REV_AT_EPOCH":8519,"BSTAR":0.00028351559,"MEAN_MOTION_DOT":3.253e-5,"MEAN_MOTION_DDOT":0},{"OBJECT_NAME":"STARLINK-34533","OBJECT_ID":"2025-142V","EPOCH":"2026-03-09T23:20:59.104320","MEAN_MOTION":14.9831918,"ECCENTRICITY":0.00029794,"INCLINATION":70.0006,"RA_OF_ASC_NODE":313.7262,"ARG_OF_PERICENTER":274.2508,"MEAN_ANOMALY":85.8311,"EPHEMERIS_TYPE":0,"CLASSIFICATION_TYPE":"U","NORAD_CAT_ID":64715,"ELEMENT_SET_NO":999,"REV_AT_EPOCH":3950,"BSTAR":0.00061409259,"MEAN_MOTION_DOT":7.24e-5,"MEAN_MOTION_DDOT":0}]
